0 TITAN 3C TRANSTAGE DEB
1 29013U 65108CV  13292.27853692 -.00000012  00000-0  59208-3 0  3203
2 29013 026.4523 067.5355 6779368 273.7536 017.3926 02.68843659 91367
0 TITAN 3C TRANSTAGE DEB
1 29013U 65108CV  13295.25357416 -.00000021  00000-0  10469-2 0  3213
2 29013 026.4159 066.2602 6779311 275.8587 016.7370 02.68844309 91448
0 TITAN 3C TRANSTAGE DEB
1 29013U 65108CV  13295.62396736 -.00000072  00000-0  30872-3 0  3220
2 29013 026.4629 066.1687 6779887 276.0435 015.2210 02.68844900 91450
